H1 CPF  1  HTS 2022  7  7 12  6881 larets           NONE
H2  0304206 5557    27944 2022 07 07  0  0  0 2022 07 12  0  0  0   180 1 1  0 0 0
H5  0.0560 
H9 
10 0 59766  85320.00000  0    3194862.053    3319373.105   -5360378.886
10 0 59766  85500.00000  0    4087300.501    3717800.319   -4409860.121
10 0 59766  85680.00000  0    4840057.989    3959931.345   -3298407.191
10 0 59766  85860.00000  0    5421563.573    4040966.086   -2066493.868
10 0 59766  86040.00000  0    5806399.007    3962698.940    -759062.735
10 0 59766  86220.00000  0    5976428.427    3733303.189     576119.711
10 0 59767      0.00000  0    5921648.547    3366846.418    1890232.262
10 0 59767    180.00000  0    5640710.663    2882557.764    3135219.425
10 0 59767    360.00000  0    5141083.927    2303886.901    4265582.247
10 0 59767    540.00000  0    4438850.740    1657401.757    5240058.142
10 0 59767    720.00000  0    3558156.686     971586.653    6023118.747
10 0 59767    900.00000  0    2530339.230     275599.006    6586240.841
10 0 59767   1080.00000  0    1392782.729    -401956.758    6908900.994
10 0 59767   1260.00000  0     187552.185   -1034189.139    6979290.853
10 0 59767   1440.00000  0   -1040158.839   -1596977.641    6794732.362
10 0 59767   1620.00000  0   -2243709.430   -2069890.332    6361781.320
10 0 59767   1800.00000  0   -3376766.445   -2436928.569    5696024.254
10 0 59767   1980.00000  0   -4395092.949   -2687082.137    4821576.664
10 0 59767   2160.00000  0   -5258310.196   -2814674.723    3770261.625
10 0 59767   2340.00000  0   -5931548.433   -2819475.724    2580488.585
10 0 59767   2520.00000  0   -6386919.014   -2706574.766    1295867.663
10 0 59767   2700.00000  0   -6604734.805   -2486022.457     -36408.048
10 0 59767   2880.00000  0   -6574400.695   -2172244.070   -1367346.935
10 0 59767   3060.00000  0   -6294922.275   -1783257.917   -2648028.388
10 0 59767   3240.00000  0   -5774999.024   -1339742.038   -3831464.414
10 0 59767   3420.00000  0   -5032707.496    -864002.107   -4874365.102
10 0 59767   3600.00000  0   -4094798.171    -378895.545   -5738733.440
10 0 59767   3780.00000  0   -2995647.699      93231.897   -6393225.726
10 0 59767   3960.00000  0   -1775929.152     531544.163   -6814232.554
10 0 59767   4140.00000  0    -481067.200     917602.979   -6986663.639
10 0 59767   4320.00000  0     840460.022    1236117.287   -6904428.425
10 0 59767   4500.00000  0    2138915.299    1475530.773   -6570620.094
10 0 59767   4680.00000  0    3365152.552    1628433.100   -5997400.949
10 0 59767   4860.00000  0    4472459.456    1691781.210   -5205580.970
10 0 59767   5040.00000  0    5418333.637    1666924.812   -4223907.130
10 0 59767   5220.00000  0    6166137.599    1559437.213   -3088068.502
10 0 59767   5400.00000  0    6686560.095    1378754.509   -1839437.341
10 0 59767   5580.00000  0    6958820.717    1137638.260    -523579.033
10 0 59767   5760.00000  0    6971547.458     851482.765     811422.153
10 0 59767   5940.00000  0    6723275.895     537502.485    2116747.652
10 0 59767   6120.00000  0    6222547.296     213838.896    3344665.934
10 0 59767   6300.00000  0    5487590.389    -101367.008    4450309.552
10 0 59767   6480.00000  0    4545611.386    -390884.773    5393325.221
10 0 59767   6660.00000  0    3431734.630    -639243.630    6139336.983
10 0 59767   6840.00000  0    2187645.628    -833479.347    6661167.611
10 0 59767   7020.00000  0     860006.559    -963747.120    6939790.136
10 0 59767   7200.00000  0    -501300.956   -1023779.234    6964990.726
10 0 59767   7380.00000  0   -1845041.453   -1011169.157    6735724.765
10 0 59767   7560.00000  0   -3120536.109    -927471.764    6260167.316
10 0 59767   7740.00000  0   -4279565.588    -778114.550    5555461.161
10 0 59767   7920.00000  0   -5278215.302    -572124.724    4647156.442
10 0 59767   8100.00000  0   -6078590.758    -321679.268    3568335.085
10 0 59767   8280.00000  0   -6650324.583     -41492.633    2358439.861
10 0 59767   8460.00000  0   -6971810.110     251933.142    1061843.099
10 0 59767   8640.00000  0   -7031094.242     541159.951    -273806.674
10 0 59767   8820.00000  0   -6826368.233     808722.727   -1599391.531
10 0 59767   9000.00000  0   -6366024.286    1038047.854   -2866196.100
10 0 59767   9180.00000  0   -5668283.075    1214331.228   -4027758.666
10 0 59767   9360.00000  0   -4760402.921    1325328.666   -5041618.265
10 0 59767   9540.00000  0   -3677526.606    1362015.569   -5870868.883
10 0 59767   9720.00000  0   -2461240.683    1319085.924   -6485468.741
10 0 59767   9900.00000  0   -1157921.843    1195270.799   -6863271.554
10 0 59767  10080.00000  0     183058.308     993469.354   -6990756.991
10 0 59767  10260.00000  0    1511194.346     720688.863   -6863458.017
10 0 59767  10440.00000  0    2776725.267     387797.788   -6486095.005
10 0 59767  10620.00000  0    3932477.034       9098.311   -5872402.319
10 0 59767  10800.00000  0    4935606.223    -398267.218   -5044654.846
10 0 59767  10980.00000  0    5749195.419    -815056.896   -4032907.909
10 0 59767  11160.00000  0    6343647.038   -1220791.324   -2873954.037
10 0 59767  11340.00000  0    6697811.031   -1594703.430   -1610019.595
10 0 59767  11520.00000  0    6799793.258   -1916733.311    -287238.034
10 0 59767  11700.00000  0    6647397.419   -2168518.253    1046046.066
10 0 59767  11880.00000  0    6248172.770   -2334327.856    2341074.802
10 0 59767  12060.00000  0    5619058.495   -2401894.384    3550497.658
10 0 59767  12240.00000  0    4785642.684   -2363093.377    4630131.218
10 0 59767  12420.00000  0    3781081.859   -2214440.626    5540578.316
10 0 59767  12600.00000  0    2644741.855   -1957385.669    6248653.507
10 0 59767  12780.00000  0    1420619.542   -1598388.368    6728560.710
10 0 59767  12960.00000  0     155623.362   -1148778.346    6962793.633
10 0 59767  13140.00000  0   -1102223.550    -624401.964    6942742.385
10 0 59767  13320.00000  0   -2305592.205     -45068.915    6668996.854
10 0 59767  13500.00000  0   -3409615.141     566185.609    6151346.976
10 0 59767  13680.00000  0   -4373563.185    1184002.409    5408476.012
10 0 59767  13860.00000  0   -5162379.448    1781734.747    4467341.746
10 0 59767  14040.00000  0   -5748009.869    2332585.934    3362247.756
10 0 59767  14220.00000  0   -6110468.175    2810800.530    2133623.642
10 0 59767  14400.00000  0   -6238586.031    3192855.019     826550.399
10 0 59767  14580.00000  0   -6130403.342    3458588.526    -510925.568
10 0 59767  14760.00000  0   -5793165.104    3592208.282   -1829616.068
10 0 59767  14940.00000  0   -5242925.393    3583115.093   -3081069.224
10 0 59767  15120.00000  0   -4503771.948    3426501.600   -4219412.375
10 0 59767  15300.00000  0   -3606721.789    3123692.299   -5203065.580
10 0 59767  15480.00000  0   -2588359.451    2682214.875   -5996253.209
10 0 59767  15660.00000  0   -1489296.405    2115609.126   -6570265.928
10 0 59767  15840.00000  0    -352519.577    1442985.515   -6904441.343
10 0 59767  16020.00000  0     778294.429     688357.881   -6986840.974
10 0 59767  16200.00000  0    1860439.944    -120220.407   -6814628.635
10 0 59767  16380.00000  0    2853773.838    -951693.288   -6394145.460
10 0 59767  16560.00000  0    3722184.075   -1773178.258   -5740681.095
10 0 59767  16740.00000  0    4434895.720   -2551245.733   -4877951.943
10 0 59767  16920.00000  0    4967576.365   -3253267.890   -3837289.585
10 0 59767  17100.00000  0    5303193.906   -3848782.279   -2656548.548
10 0 59767  17280.00000  0    5432594.525   -4310811.977   -1378761.676
10 0 59767  17460.00000  0    5354767.239   -4617081.881     -50579.347
10 0 59767  17640.00000  0    5076774.688   -4751070.390    1279450.247
10 0 59767  17820.00000  0    4613346.106   -4702836.136    2562690.432
10 0 59767  18000.00000  0    3986152.867   -4469571.857    3752230.171
10 0 59767  18180.00000  0    3222808.637   -4055861.973    4804622.241
10 0 59767  18360.00000  0    2355644.453   -3473631.815    5681474.652
10 0 59767  18540.00000  0    1420325.611   -2741793.944    6350833.438
10 0 59767  18720.00000  0     454374.479   -1885612.580    6788312.784
10 0 59767  18900.00000  0    -504334.757    -935818.032    6977942.769
10 0 59767  19080.00000  0   -1419050.426      72496.980    6912724.123
10 0 59767  19260.00000  0   -2255540.473    1101164.632    6594881.294
10 0 59767  19440.00000  0   -2983370.199    2110372.967    6035807.592
10 0 59767  19620.00000  0   -3577020.236    3060197.739    5255701.060
10 0 59767  19800.00000  0   -4016809.874    3912188.457    4282891.163
10 0 59767  19980.00000  0   -4289589.134    4630949.924    3152859.485
10 0 59767  20160.00000  0   -4389164.482    5185653.803    1906973.129
10 0 59767  20340.00000  0   -4316430.032    5551402.857     590964.608
10 0 59767  20520.00000  0   -4079196.748    5710374.577    -746780.933
10 0 59767  20700.00000  0   -3691722.214    5652683.565   -2057066.861
10 0 59767  20880.00000  0   -3173955.424    5376901.394   -3291767.671
10 0 59767  21060.00000  0   -2550542.679    4890209.989   -4405651.721
10 0 59767  21240.00000  0   -1849657.932    4208185.258   -5358061.415
10 0 59767  21420.00000  0   -1101723.682    3354239.224   -6114381.685
10 0 59767  21600.00000  0    -338086.929    2358755.212   -6647258.742
10 0 59767  21780.00000  0     410292.125    1257954.922   -6937529.319
10 0 59767  21960.00000  0    1114080.354      92555.936   -6974846.913
10 0 59767  22140.00000  0    1746703.129   -1093734.600   -6758005.126
10 0 59767  22320.00000  0    2285328.854   -2255842.217   -6294953.543
10 0 59767  22500.00000  0    2711680.321   -3349010.899   -5602518.404
10 0 59767  22680.00000  0    3012654.257   -4330513.994   -4705833.041
10 0 59767  22860.00000  0    3180724.686   -5161329.514   -3637469.560
10 0 59767  23040.00000  0    3214113.480   -5807709.776   -2436302.317
10 0 59767  23220.00000  0    3116723.380   -6242590.870   -1146124.378
99
